{
  "type": "FeatureCollection",
  "features": [
    {
      "type": "Feature",
      "properties": {
        "norad_id": 40069,
        "name": "METEOR-M 2",
        "group": "weather",
        "lat": -61.87936208124592,
        "lon": 118.40209467927002,
        "alt_km": 824.4726646775725,
        "timestamp": "2025-12-02T15:49:06.826122+00:00",
        "meta_object_name": "METEOR-M 2",
        "meta_object_id": "2014-037A",
        "meta_epoch": "2025-12-02T06:13:51.751200",
        "meta_mean_motion": 14.21379933,
        "meta_eccentricity": 0.00046742,
        "meta_inclination": 98.4891,
        "meta_ra_of_asc_node": 314.2465,
        "meta_arg_of_pericenter": 245.0066,
        "meta_mean_anomaly": 115.0627,
        "meta_ephemeris_type": 0,
        "meta_classification_type": "U",
        "meta_norad_cat_id": 40069,
        "meta_element_set_no": 999,
        "meta_rev_at_epoch": 59134,
        "meta_bstar": 0.00011682875,
        "meta_mean_motion_dot": 2.13e-06,
        "meta_mean_motion_ddot": 0,
        "tle_line1": "1 40069U 14037A   25336.25962675  .00000213  00000+0  11683-3 0  9992",
        "tle_line2": "2 40069  98.4891 314.2465 0004674 245.0066 115.0627 14.21379933591345"
      },
      "geometry": {
        "type": "Point",
        "coordinates": [
          118.40209467927002,
          -61.87936208124592
        ]
      }
    },
    {
      "type": "Feature",
      "properties": {
        "norad_id": 40267,
        "name": "HIMAWARI-8",
        "group": "weather",
        "lat": -0.007411722998404982,
        "lon": 89.6991570923337,
        "alt_km": 35791.04341094527,
        "timestamp": "2025-12-02T15:49:06.826135+00:00",
        "meta_object_name": "HIMAWARI-8",
        "meta_object_id": "2014-060A",
        "meta_epoch": "2025-12-02T05:53:32.884800",
        "meta_mean_motion": 1.00272463,
        "meta_eccentricity": 0.00012215,
        "meta_inclination": 0.0108,
        "meta_ra_of_asc_node": 165.8094,
        "meta_arg_of_pericenter": 112.466,
        "meta_mean_anomaly": 22.1496,
        "meta_ephemeris_type": 0,
        "meta_classification_type": "U",
        "meta_norad_cat_id": 40267,
        "meta_element_set_no": 999,
        "meta_rev_at_epoch": 4078,
        "meta_bstar": 0,
        "meta_mean_motion_dot": -2.54e-06,
        "meta_mean_motion_ddot": 0,
        "tle_line1": "1 40267U 14060A   25336.24551950 -.00000254  00000+0  00000+0 0  9990",
        "tle_line2": "2 40267   0.0108 165.8094 0001221 112.4660  22.1496  1.00272463 40787"
      },
      "geometry": {
        "type": "Point",
        "coordinates": [
          89.6991570923337,
          -0.007411722998404982
        ]
      }
    },
    {
      "type": "Feature",
      "properties": {
        "norad_id": 40367,
        "name": "FENGYUN 2G",
        "group": "weather",
        "lat": -2.2620765973177583,
        "lon": 48.857256090166864,
        "alt_km": 35797.344823517495,
        "timestamp": "2025-12-02T15:49:06.826147+00:00",
        "meta_object_name": "FENGYUN 2G",
        "meta_object_id": "2014-090A",
        "meta_epoch": "2025-12-01T19:25:27.039072",
        "meta_mean_motion": 1.00268232,
        "meta_eccentricity": 0.00030118,
        "meta_inclination": 5.1381,
        "meta_ra_of_asc_node": 75.2239,
        "meta_arg_of_pericenter": 193.0179,
        "meta_mean_anomaly": 193.7823,
        "meta_ephemeris_type": 0,
        "meta_classification_type": "U",
        "meta_norad_cat_id": 40367,
        "meta_element_set_no": 999,
        "meta_rev_at_epoch": 4002,
        "meta_bstar": 0,
        "meta_mean_motion_dot": -2.82e-06,
        "meta_mean_motion_ddot": 0,
        "tle_line1": "1 40367U 14090A   25335.80934073 -.00000282  00000+0  00000+0 0  9997",
        "tle_line2": "2 40367   5.1381  75.2239 0003011 193.0179 193.7823  1.00268232 40026"
      },
      "geometry": {
        "type": "Point",
        "coordinates": [
          48.857256090166864,
          -2.2620765973177583
        ]
      }
    },
    {
      "type": "Feature",
      "properties": {
        "norad_id": 40732,
        "name": "METEOSAT-11 (MSG-4)",
        "group": "weather",
        "lat": -2.484494363626387,
        "lon": -41.549038759415524,
        "alt_km": 35784.68422142501,
        "timestamp": "2025-12-02T15:49:06.826159+00:00",
        "meta_object_name": "METEOSAT-11 (MSG-4)",
        "meta_object_id": "2015-034A",
        "meta_epoch": "2025-12-02T05:16:06.470976",
        "meta_mean_motion": 1.00277424,
        "meta_eccentricity": 2.577e-05,
        "meta_inclination": 2.7093,
        "meta_ra_of_asc_node": 72.0278,
        "meta_arg_of_pericenter": 161.9881,
        "meta_mean_anomaly": 285.7846,
        "meta_ephemeris_type": 0,
        "meta_classification_type": "U",
        "meta_norad_cat_id": 40732,
        "meta_element_set_no": 999,
        "meta_rev_at_epoch": 524,
        "meta_bstar": 0,
        "meta_mean_motion_dot": 8.4e-07,
        "meta_mean_motion_ddot": 0,
        "tle_line1": "1 40732U 15034A   25336.21951934  .00000084  00000+0  00000+0 0  9992",
        "tle_line2": "2 40732   2.7093  72.0278 0000257 161.9881 285.7846  1.00277424  5241"
      },
      "geometry": {
        "type": "Point",
        "coordinates": [
          -41.549038759415524,
          -2.484494363626387
        ]
      }
    },
    {
      "type": "Feature",
      "properties": {
        "norad_id": 41105,
        "name": "ELEKTRO-L 2",
        "group": "weather",
        "lat": -4.121985849618664,
        "lon": -65.64352554243806,
        "alt_km": 35772.06354082295,
        "timestamp": "2025-12-02T15:49:06.826172+00:00",
        "meta_object_name": "ELEKTRO-L 2",
        "meta_object_id": "2015-074A",
        "meta_epoch": "2025-12-02T01:43:47.338752",
        "meta_mean_motion": 1.00269907,
        "meta_eccentricity": 0.00039368,
        "meta_inclination": 6.1965,
        "meta_ra_of_asc_node": 72.9528,
        "meta_arg_of_pericenter": 196.8313,
        "meta_mean_anomaly": 172.831,
        "meta_ephemeris_type": 0,
        "meta_classification_type": "U",
        "meta_norad_cat_id": 41105,
        "meta_element_set_no": 999,
        "meta_rev_at_epoch": 3653,
        "meta_bstar": 0,
        "meta_mean_motion_dot": -9.8e-07,
        "meta_mean_motion_ddot": 0,
        "tle_line1": "1 41105U 15074A   25336.07207568 -.00000098  00000+0  00000+0 0  9998",
        "tle_line2": "2 41105   6.1965  72.9528 0003936 196.8313 172.8310  1.00269907 36538"
      },
      "geometry": {
        "type": "Point",
        "coordinates": [
          -65.64352554243806,
          -4.121985849618664
        ]
      }
    },
    {
      "type": "Feature",
      "properties": {
        "norad_id": 41752,
        "name": "INSAT-3DR",
        "group": "weather",
        "lat": -0.02779130329962769,
        "lon": 23.197254944944163,
        "alt_km": 35811.95216249437,
        "timestamp": "2025-12-02T15:49:06.826185+00:00",
        "meta_object_name": "INSAT-3DR",
        "meta_object_id": "2016-054A",
        "meta_epoch": "2025-12-02T02:08:59.925408",
        "meta_mean_motion": 1.00269631,
        "meta_eccentricity": 0.00143758,
        "meta_inclination": 0.0638,
        "meta_ra_of_asc_node": 89.7219,
        "meta_arg_of_pericenter": 179.0448,
        "meta_mean_anomaly": 268.7222,
        "meta_ephemeris_type": 0,
        "meta_classification_type": "U",
        "meta_norad_cat_id": 41752,
        "meta_element_set_no": 999,
        "meta_rev_at_epoch": 3384,
        "meta_bstar": 0,
        "meta_mean_motion_dot": -5.6e-07,
        "meta_mean_motion_ddot": 0,
        "tle_line1": "1 41752U 16054A   25336.08958247 -.00000056  00000+0  00000+0 0  9997",
        "tle_line2": "2 41752   0.0638  89.7219 0014375 179.0448 268.7222  1.00269631 33842"
      },
      "geometry": {
        "type": "Point",
        "coordinates": [
          23.197254944944163,
          -0.02779130329962769
        ]
      }
    },
    {
      "type": "Feature",
      "properties": {
        "norad_id": 41836,
        "name": "HIMAWARI-9",
        "group": "weather",
        "lat": 0.03235939594356596,
        "lon": 89.76779585233425,
        "alt_km": 35794.56090477889,
        "timestamp": "2025-12-02T15:49:06.826197+00:00",
        "meta_object_name": "HIMAWARI-9",
        "meta_object_id": "2016-064A",
        "meta_epoch": "2025-12-01T20:24:38.620800",
        "meta_mean_motion": 1.00272319,
        "meta_eccentricity": 0.00023089,
        "meta_inclination": 0.0209,
        "meta_ra_of_asc_node": 319.9176,
        "meta_arg_of_pericenter": 338.5098,
        "meta_mean_anomaly": 219.4399,
        "meta_ephemeris_type": 0,
        "meta_classification_type": "U",
        "meta_norad_cat_id": 41836,
        "meta_element_set_no": 999,
        "meta_rev_at_epoch": 3323,
        "meta_bstar": 0,
        "meta_mean_motion_dot": 0,
        "meta_mean_motion_ddot": 0,
        "tle_line1": "1 41836U 16064A   25335.85044700  .00000000  00000+0  00000+0 0  9993",
        "tle_line2": "2 41836   0.0209 319.9176 0002308 338.5098 219.4399  1.00272319 33233"
      },
      "geometry": {
        "type": "Point",
        "coordinates": [
          89.76779585233425,
          0.03235939594356596
        ]
      }
    }
  ]
}